norad_id,name,regime,epoch,line1,line2,inclination,eccentricity,mean_motion,raan,arg_pericenter,mean_anomaly
20083,RADUGA 1-1,EGO,16117.42410560,1 20083U 89048A   16117.42410560 -.00000216  00000-0  00000+0 0  7919\,2 20083  15.3805   6.8956 0016808  58.9159  69.1157  0.98709190 94703,15.3805,0.0016808,0.9870919,6.8956,58.9159,69.1157
20083,RADUGA 1-1,EGO,16118.61854466,1 20083U 89048A   16118.61854466 -.00000185 +00000-0 +00000-0 0 0001\,2 20083 015.3808 006.8831 0016822 058.9279 133.5660 00.9870863309472,15.3808,0.0016822,0.98708633,6.8831,58.9279,133.566
20083,RADUGA 1-1,EGO,16119.09030177,1 20083U 89048A   16119.09030177  .00000000  00000-0  10000-3 0  7933\,2 20083  15.3809   6.8782 0016903  59.1549 300.9864  0.98704370 94713,15.3809,0.0016903,0.9870437,6.8782,59.1549,300.9864
20083,RADUGA 1-1,EGO,16119.61623542,1 20083U 89048A   16119.61623542 -.00000157  00000-0  00000+0 0  7945\,2 20083  15.3810   6.8726 0016839  58.9382 128.0985  0.98708157 94724,15.381,0.0016839,0.98708157,6.8726,58.9382,128.0985
20083,RADUGA 1-1,EGO,16120.61043280,1 20083U 89048A   16120.61043280 -.00000128 +00000-0 +00000-0 0 0001\,2 20083 015.3812 006.8622 0016858 058.9537 121.3831 00.9870769709474,15.3812,0.0016858,0.98707697,6.8622,58.9537,121.3831
20083,RADUGA 1-1,EGO,16121.84975619,1 20083U 89048A   16121.84975619 -.00000092  00000-0  00000+0 0  7957\,2 20083  15.3814   6.8492 0016876  58.9886 201.7542  0.98707159 94749,15.3814,0.0016876,0.98707159,6.8492,58.9886,201.7542
20083,RADUGA 1-1,EGO,16122.70211622,1 20083U 89048A   16122.70211622 -.00000069 +00000-0 +00000-0 0 0001\,2 20083 015.3816 006.8402 0016902 059.0408 144.5957 00.9870684309476,15.3816,0.0016902,0.98706843,6.8402,59.0408,144.5957
20083,RADUGA 1-1,EGO,16123.66305794,1 20083U 89048A   16123.66305794 -.00000045 +00000-0 +00000-0 0 0001\,2 20083 015.3818 006.8301 0016925 059.1062 126.0078 00.9870653009477,15.3818,0.0016925,0.9870653,6.8301,59.1062,126.0078
20083,RADUGA 1-1,EGO,16124.83736234,1 20083U 89048A   16124.83736234 -.00000021  00000-0  00000+0 0  7960\,2 20083  15.3820   6.8178 0016949  59.2061 183.2047  0.98706260 94776,15.382,0.0016949,0.9870626,6.8178,59.2061,183.2047
20083,RADUGA 1-1,EGO,16125.02248144,1 20083U 89048A   16125.02248144 -.00000018 +00000-0 +00000-0 0 0001\,2 20083 015.3820 006.8158 0016954 059.2475 248.9463 00.9870622409478,15.382,0.0016954,0.98706224,6.8158,59.2475,248.9463
20083,RADUGA 1-1,EGO,16126.84192984,1 20083U 89048A   16126.84192984  .00000005  00000-0  00000+0 0  7973\,2 20083  15.3824   6.7966 0016989  59.4275 175.3182  0.98706108 94792,15.3824,0.0016989,0.98706108,6.7966,59.4275,175.3182
20083,RADUGA 1-1,EGO,16126.88998745,1 20083U 89048A   16126.88998745 +.00000005 +00000-0 +00000-0 0 0001\,2 20083 015.3824 006.7961 0016990 059.4378 192.3856 00.9870611309480,15.3824,0.001699,0.98706113,6.7961,59.4378,192.3856
20083,RADUGA 1-1,EGO,16129.72205413,1 20083U 89048A   16129.72205413  .00000003  00000-0  00000+0 0  7984\,2 20083  15.3829   6.7663 0017001  59.7685 118.4472  0.98706552 94822,15.3829,0.0017001,0.98706552,6.7663,59.7685,118.4472
20083,RADUGA 1-1,EGO,16129.92881265,1 20083U 89048A   16129.92881265 +.00000001 +00000-0 +00000-0 0 0001\,2 20083 015.3829 006.7642 0017003 059.7926 191.8964 00.9870661409483,15.3829,0.0017003,0.98706614,6.7642,59.7926,191.8964
20083,RADUGA 1-1,EGO,16130.62840365,1 20083U 89048A   16130.62840365 -.00000007 +00000-0 +00000-0 0 0001\,2 20083 015.3830 006.7568 0016994 059.9026 080.3907 00.9870681609484,15.383,0.0016994,0.98706816,6.7568,59.9026,80.3907
20083,RADUGA 1-1,EGO,16131.73180844,1 20083U 89048A   16131.73180844 -.00000023  00000-0  00000+0 0  7992\,2 20083  15.3832   6.7452 0016985  60.0240 112.3739  0.98707225 94843,15.3832,0.0016985,0.98707225,6.7452,60.024,112.3739
20083,RADUGA 1-1,EGO,16132.90912109,1 20083U 89048A   16132.90912109 -.00000046 +00000-0 +00000-0 0 0001\,2 20083 015.3834 006.7328 0016973 060.1480 170.6206 00.9870772309486,15.3834,0.0016973,0.98707723,6.7328,60.148,170.6206
20083,RADUGA 1-1,EGO,16135.88879936,1 20083U 89048A   16135.88879936 -.00000116  00000-0  00000+0 0  8005\,2 20083  15.3839   6.7016 0016918  60.3851 149.2519  0.98709012 94888,15.3839,0.0016918,0.98709012,6.7016,60.3851,149.2519
20083,RADUGA 1-1,EGO,16136.75998880,1 20083U 89048A   16136.75998880 -.00000137 +00000-0 +00000-0 0 0001\,2 20083 015.3841 006.6924 0016900 060.4380 098.7900 00.9870934309490,15.3841,0.00169,0.98709343,6.6924,60.438,98.79
20083,RADUGA 1-1,EGO,16142.32263745,1 20083U 89048A   16142.32263745 -.00000233  00000-0  00000+0 0  8018\,2 20083  15.3850   6.6343 0016825  60.5254 275.4972  0.98710427 94943,15.385,0.0016825,0.98710427,6.6343,60.5254,275.4972
20083,RADUGA 1-1,EGO,16144.26191544,1 20083U 89048A   16144.26191544 -.00000239 +00000-0 +00000-0 0 0001\,2 20083 015.3853 006.6140 0016815 060.4848 244.6985 00.9871024209497,15.3853,0.0016815,0.98710242,6.614,60.4848,244.6985
20083,RADUGA 1-1,EGO,16146.30515436,1 20083U 89048A   16146.30515436 -.00000229  00000-0  00000+0 0  8023\,2 20083  15.3857   6.5926 0016825  60.4922 250.7948  0.98709801 94984,15.3857,0.0016825,0.98709801,6.5926,60.4922,250.7948
20083,RADUGA 1-1,EGO,16148.39597693,1 20083U 89048A   16148.39597693 -.00000203  00000-0  00000+0 0  8032\,2 20083  15.3860   6.5707 0016850  60.5373 273.7601  0.98709174 95002,15.386,0.001685,0.98709174,6.5707,60.5373,273.7601
20083,RADUGA 1-1,EGO,16154.11281243,1 20083U 89048A   16154.11281243 -.00000091  00000-0  00000+0 0  8046\,2 20083  15.3869   6.5106 0016938  60.9182 144.9298  0.98707267 95061,15.3869,0.0016938,0.98707267,6.5106,60.9182,144.9298
20083,RADUGA 1-1,EGO,16154.54591074,1 20083U 89048A   16154.54591074 -.00000082 +00000-0 +00000-0 0 0001\,2 20083 015.3869 006.5060 0016928 060.8206 298.9344 00.9870717809507,15.3869,0.0016928,0.98707178,6.506,60.8206,298.9344
20083,RADUGA 1-1,EGO,16155.12229684,1 20083U 89048A   16155.12229684 -.00000071 +00000-0 +00000-0 0 0001\,2 20083 015.3870 006.5000 0016934 060.8628 143.7162 00.9870704409508,15.387,0.0016934,0.98707044,6.5,60.8628,143.7162
20083,RADUGA 1-1,EGO,16156.38896104,1 20083U 89048A   16156.38896104 -.00000048  00000-0  00000+0 0  8058\,2 20083  15.3872   6.4866 0016932  61.0278 233.6713  0.98706809 95080,15.3872,0.0016932,0.98706809,6.4866,61.0278,233.6713
20083,RADUGA 1-1,EGO,16158.45282051,1 20083U 89048A   16158.45282051 -.00000019  00000-0  00000+0 0  8067\,2 20083  15.3875   6.4648 0016916  61.2738 246.8339  0.98706632 95103,15.3875,0.0016916,0.98706632,6.4648,61.2738,246.8339
20083,RADUGA 1-1,EGO,16159.52989168,1 20083U 89048A   16159.52989168 -.00000009 +00000-0 +00000-0 0 0001\,2 20083 015.3876 006.4534 0016899 061.3936 269.4595 00.9870664709512,15.3876,0.0016899,0.98706647,6.4534,61.3936,269.4595
20083,RADUGA 1-1,EGO,16160.62527263,1 20083U 89048A   16160.62527263 -.00000003  00000-0  00000+0 0  8070\,2 20083  15.3878   6.4419 0016877  61.5106 298.5937  0.98706726 95124,15.3878,0.0016877,0.98706726,6.4419,61.5106,298.5937
20083,RADUGA 1-1,EGO,16163.35746655,1 20083U 89048A   16163.35746655 -.00000011  00000-0  00000+0 0  8081\,2 20083  15.3882   6.4130 0016809  61.6795 189.3327  0.98707287 95155,15.3882,0.0016809,0.98707287,6.413,61.6795,189.3327
20083,RADUGA 1-1,EGO,16164.17283432,1 20083U 89048A   16164.17283432 -.00000020 +00000-0 +00000-0 0 0001\,2 20083 015.3883 006.4045 0016789 061.7160 119.0452 00.9870753709517,15.3883,0.0016789,0.98707537,6.4045,61.716,119.0452
20083,RADUGA 1-1,EGO,16165.30467398,1 20083U 89048A   16165.30467398 -.00000037 +00000-0 +00000-0 0 0001\,2 20083 015.3884 006.3926 0016764 061.7546 161.2181 00.9870793109518,15.3884,0.0016764,0.98707931,6.3926,61.7546,161.2181
20083,RADUGA 1-1,EGO,16166.22479981,1 20083U 89048A   16166.22479981 -.00000054  00000-0  00000+0 0  8093\,2 20083  15.3886   6.3829 0016747  61.7392 128.2118  0.98708291 95187,15.3886,0.0016747,0.98708291,6.3829,61.7392,128.2118
20083,RADUGA 1-1,EGO,16167.62137199,1 20083U 89048A   16167.62137199 -.00000085 +00000-0 +00000-0 0 0001\,2 20083 015.3888 006.3682 0016720 061.7412 264.5012 00.9870886609520,15.3888,0.001672,0.98708866,6.3682,61.7412,264.5012
20083,RADUGA 1-1,EGO,16168.72129084,1 20083U 89048A   16168.72129084 -.00000113  00000-0  00000+0 0  8104\,2 20083  15.3889   6.3567 0016697  61.7815 295.3335  0.98709301 95206,15.3889,0.0016697,0.98709301,6.3567,61.7815,295.3335
20083,RADUGA 1-1,EGO,16169.73392875,1 20083U 89048A   16169.73392875 -.00000140 +00000-0 +00000-0 0 0001\,2 20083 015.3890 006.3460 0016684 061.7671 295.2060 00.9870969809522,15.389,0.0016684,0.98709698,6.346,61.7671,295.206
20083,RADUGA 1-1,EGO,16170.74886289,1 20083U 89048A   16170.74886289 -.00000167  00000-0  00000+0 0  8116\,2 20083  15.3892   6.3353 0016674  61.7533 295.8957  0.98710071 95228,15.3892,0.0016674,0.98710071,6.3353,61.7533,295.8957
20083,RADUGA 1-1,EGO,16171.25210750,1 20083U 89048A   16171.25210750 -.00000181 +00000-0 +00000-0 0 0001\,2 20083 015.3892 006.3300 0016677 061.7549 114.7320 00.9871023509524,15.3892,0.0016677,0.98710235,6.33,61.7549,114.732
20083,RADUGA 1-1,EGO,16172.27271551,1 20083U 89048A   16172.27271551 -.00000206 +00000-0 +00000-0 0 0001\,2 20083 015.3894 006.3193 0016676 061.7427 117.4381 00.9871052809525,15.3894,0.0016676,0.98710528,6.3193,61.7427,117.4381
20083,RADUGA 1-1,EGO,16173.31577102,1 20083U 89048A   16173.31577102 -.00000229  00000-0  00000+0 0  8123\,2 20083  15.3895   6.3083 0016678  61.7263 128.1264  0.98710745 95255,15.3895,0.0016678,0.98710745,6.3083,61.7263,128.1264
20083,RADUGA 1-1,EGO,16174.30327188,1 20083U 89048A   16174.30327188 -.00000247 +00000-0 +00000-0 0 0001\,2 20083 015.3896 006.2978 0016680 061.7455 119.0381 00.9871089409527,15.3896,0.001668,0.98710894,6.2978,61.7455,119.0381
20083,RADUGA 1-1,EGO,16175.81256667,1 20083U 89048A   16175.81256667 -.00000266  00000-0  00000+0 0  8132\,2 20083  15.3898   6.2819 0016686  61.7491 295.3965  0.98710929 95277,15.3898,0.0016686,0.98710929,6.2819,61.7491,295.3965
